OBJECT_NAME,OBJECT_ID,EPOCH,MEAN_MOTION,ECCENTRICITY,INCLINATION,RA_OF_ASC_NODE,ARG_OF_PERICENTER,MEAN_ANOMALY,EPHEMERIS_TYPE,CLASSIFICATION_TYPE,NORAD_CAT_ID,ELEMENT_SET_NO,REV_AT_EPOCH,BSTAR,MEAN_MOTION_DOT,MEAN_MOTION_DDOT
SUOMI NPP,2011-061A,2026-06-13T06:03:23.092704,14.19516624,.00017493,98.7954,105.1553,15.9779,344.1451,0,U,37849,999,75788,.42340899E-4,.45E-6,0
YAOGAN-12,2011-066B,2026-06-13T06:24:55.464768,15.26556630,.00083296,97.1149,203.0201,232.4916,127.5567,0,U,37875,999,81144,.22496921E-3,.5818E-4,0
BEIDOU-2 M4,2012-018B,2026-06-12T19:48:25.640928,1.86229596,.00112794,55.6622,304.2372,276.2028,83.6498,0,U,38251,999,9586,0,-.69E-6,0
ARIRANG-3 (KOMPSAT-3),2012-025B,2026-06-13T06:27:23.631264,14.62202984,.00065396,98.1176,121.7966,119.2983,240.8873,0,U,38338,999,75077,.85893733E-4,.386E-5,0
HORYU-2,2012-025D,2026-06-13T06:43:03.264960,14.91046120,.00079883,98.2168,297.0566,186.5962,173.5152,0,U,38340,999,74814,.28603486E-3,.2771E-4,0
CSSWE,2012-048D,2026-06-13T06:39:25.161120,15.44284631,.00477119,64.6620,106.7342,174.9970,185.1654,0,U,38761,999,11579,.53789457E-3,.25808E-3,0
CP5,2012-048F,2026-06-13T06:29:49.039008,15.27676750,.00791022,64.6428,165.5306,177.5307,182.6230,0,U,38763,999,11616,.34553299E-3,.10078E-3,0
METOP-B,2012-049A,2026-06-13T05:56:42.116352,14.21431683,.00024701,98.6505,215.8253,29.2059,330.9256,0,U,38771,999,71270,.61834822E-4,.92E-6,0
SJ-9A,2012-056A,2026-06-13T06:10:54.555168,14.85472392,.00239329,97.6708,136.3511,270.5241,89.3232,0,U,38860,999,69900,.14140215E-3,.1173E-4,0
COSMOS 2484 (RODNIK-S 6),2013-001C,2026-06-13T06:46:38.300736,12.42938769,.00270377,82.5023,224.3199,44.9201,315.4061,0,U,39059,999,60807,.16567752E-3,.33E-6,0
SARAL,2013-009A,2026-06-13T06:28:52.707072,14.32855009,.00009061,98.5556,350.8869,332.3852,27.7284,0,U,39086,999,69504,.48255737E-4,.88E-6,0
AAUSAT 3,2013-009B,2026-06-12T07:35:45.367584,14.39933917,.00104802,98.3700,347.2214,222.1116,137.9268,0,U,39087,999,69647,.20828566E-3,.613E-5,0
STRAND-1,2013-009E,2026-06-13T05:26:36.173184,14.37161166,.00075594,98.3921,344.5588,238.7120,121.3328,0,U,39090,999,69649,.10267492E-3,.263E-5,0
BRITE-AUSTRIA,2013-009F,2026-06-13T00:41:47.129280,14.36540568,.00090187,98.3993,343.5677,250.5098,109.5115,0,U,39091,999,69645,.69462719E-4,.161E-5,0
UNIBRITE,2013-009G,2026-06-13T05:59:49.933536,14.36411894,.00079704,98.4031,343.8932,245.5020,114.5336,0,U,39092,999,69642,.7213644E-4,.169E-5,0
AIST-2 (RS43),2013-015D,2026-06-13T06:14:05.290080,15.26263896,.00188659,64.8695,270.1735,246.9728,112.9413,0,U,39133,999,72330,.23369491E-3,.5905E-4,0
GAOFEN-1,2013-018A,2026-06-13T06:25:58.749312,14.76531262,.00156979,97.9099,236.4153,280.5590,79.3851,0,U,39150,999,70766,.45518237E-4,.267E-5,0
NEE-01 PEGASO,2013-018B,2026-06-12T21:52:05.849184,14.93641773,.00127336,98.1215,307.9206,172.7628,187.3777,0,U,39151,999,71006,.20813181E-3,.214E-4,0
TURKSAT-3USAT,2013-018C,2026-06-13T04:52:11.223552,14.96405962,.00136377,97.7933,255.0442,112.0224,248.2448,0,U,39152,999,71049,.3656007E-3,.4092E-4,0
CUBEBUG-1 (CAPITAN BETO),2013-018D,2026-06-13T03:48:13.065120,14.97276481,.00118042,98.1654,323.9206,157.4980,202.6761,0,U,39153,999,71046,.24753358E-3,.2808E-4,0
PROBA-V,2013-021A,2026-06-13T04:23:49.153920,14.23596263,.00049931,98.3583,142.9875,132.9393,227.2206,0,U,39159,999,68054,.46162602E-4,.64E-6,0
ESTCUBE 1,2013-021C,2026-06-13T03:24:27.510912,14.81389348,.00089575,97.7294,218.4693,37.6440,322.5398,0,U,39161,999,70442,.1968439E-3,.1489E-4,0
ARIRANG-5 (KOMPSAT-5),2013-042A,2026-06-13T07:24:18.687168,15.04480859,.00050738,97.6212,351.0641,130.3643,229.8026,0,U,39227,999,70327,.81668814E-4,.1082E-4,0
GONETS-M 5,2013-048A,2026-06-13T06:01:31.973664,12.42891798,.00159201,82.4831,345.8373,219.4088,140.5834,0,U,39249,999,57839,.15250588E-3,.31E-6,0
GONETS-M 7,2013-048C,2026-06-13T07:04:12.537984,12.42914523,.00167062,82.4899,348.7305,220.7080,139.2752,0,U,39251,999,57835,-.53431232E-4,.2E-7,0
FENGYUN 3C,2013-052A,2026-06-13T05:27:31.240224,14.15754291,.001544,98.4985,138.2841,38.5497,321.6778,0,U,39260,999,65800,.57953012E-4,.73E-6,0
CASSIOPE,2013-055A,2026-06-13T05:24:25.924320,15.24828635,.02942361,80.9152,71.5311,75.7481,287.6236,0,U,39265,999,66706,.53304331E-3,.48651E-3,-.445639E-6
APRIZESAT 7,2013-066A,2026-06-12T20:39:05.625792,14.91555442,.00346698,97.7708,117.1426,223.9352,135.9109,0,U,39416,999,68058,.93383505E-4,.888E-5,0
ZACUBE-1 (TSHEPISOSAT),2013-066B,2026-06-13T03:23:29.393952,15.01166542,.00403772,97.8084,126.4562,261.8292,97.8350,0,U,39417,999,68012,.28793372E-3,.3691E-4,0
APRIZESAT 8,2013-066K,2026-06-12T20:04:52.958784,14.87645103,.00445933,97.8221,111.3653,301.3371,58.3485,0,U,39425,999,67902,.10788313E-3,.941E-5,0
